GLOBALSTAR M063         
1 26081U 00008A   25130.47979317 -.00000021  00000+0  89678-3 0  9997
2 26081  51.9942 210.8814 0004699 239.0935 133.9801 11.86172675153101
GLOBALSTAR M062         
1 26082U 00008B   25130.93022126 -.00000008  00000+0  64221-3 0  9998
2 26082  51.9837 205.3450 0006864  35.3535 135.9093 12.43465929491986
GLOBALSTAR M060         
1 26083U 00008C   25130.37457588 -.00000089  00000+0  18152-4 0  9993
2 26083  51.9993 161.6363 0003038  48.6591 324.4225 12.17660031147764
GLOBALSTAR M064         
1 26084U 00008D   25130.80333746 -.00000045  00000+0  54320-3 0  9999
2 26084  52.0039 309.2968 0001278  21.5030 338.5856 11.88534150162651
GLOBALSTAR M065         
1 31571U 07020A   25130.92804626 -.00000045  00000+0  32762-3 0  9996
2 31571  51.9910 339.6735 0009678 222.4549 224.5644 12.62006859828709
GLOBALSTAR M069         
1 31573U 07020C   25130.94680675 -.00000071  00000+0  19337-3 0  9998
2 31573  51.9959 312.3403 0001749 105.1962  60.9511 12.39476435829533
GLOBALSTAR M072         
1 31574U 07020D   25130.92871279 -.00000095  00000+0 -14494-3 0  9995
2 31574  51.9920  91.1571 0000838 269.6806 127.1184 11.91649123827028
GLOBALSTAR M071         
1 31576U 07020F   25130.98124525  .00000010  00000+0  99738-3 0  9997
2 31576  52.0079 335.0847 0001426  62.9103  85.4346 12.18253634490403
